[
    {
        "CCSDS_OMM_VERS": "3.0",
        "COMMENT": "GENERATED VIA SPACE-TRACK.ORG API",
        "CREATION_DATE": "2025-05-03T17:28:03",
        "ORIGINATOR": "18 SPCS",
        "OBJECT_NAME": "BEIDOU 14",
        "OBJECT_ID": "2012-050A",
        "CENTER_NAME": "EARTH",
        "REF_FRAME": "TEME",
        "TIME_SYSTEM": "UTC",
        "MEAN_ELEMENT_THEORY": "SGP4",
        "EPOCH": "2025-05-02T18:26:14.473248",
        "MEAN_MOTION": "1.86251425",
        "ECCENTRICITY": "0.00414670",
        "INCLINATION": "56.0786",
        "RA_OF_ASC_NODE": "76.5343",
        "ARG_OF_PERICENTER": "257.2707",
        "MEAN_ANOMALY": "102.2343",
        "EPHEMERIS_TYPE": "0",
        "CLASSIFICATION_TYPE": "U",
        "NORAD_CAT_ID": "38774",
        "ELEMENT_SET_NO": "999",
        "REV_AT_EPOCH": "7020",
        "BSTAR": "0.00000000000000",
        "MEAN_MOTION_DOT": "-0.00000015",
        "MEAN_MOTION_DDOT": "0.0000000000000",
        "SEMIMAJOR_AXIS": "27904.148",
        "PERIOD": "773.148",
        "APOAPSIS": "21641.723",
        "PERIAPSIS": "21410.303",
        "OBJECT_TYPE": "PAYLOAD",
        "RCS_SIZE": "LARGE",
        "COUNTRY_CODE": "PRC",
        "LAUNCH_DATE": "2012-09-18",
        "SITE": "XSC",
        "DECAY_DATE": null,
        "FILE": "4717971",
        "GP_ID": "286759101",
        "TLE_LINE0": "0 BEIDOU 14",
        "TLE_LINE1": "1 38774U 12050A   25122.76822307 -.00000015  00000-0  00000-0 0  9991",
        "TLE_LINE2": "2 38774  56.0786  76.5343 0041467 257.2707 102.2343  1.86251425 70201"
    }
]